SL-4 R/B                
1 39679U 14021B   26034.52902437  .00012984  00000+0  29750-3 0  9998
2 39679  51.6070 143.7845 0099024 338.4792  21.2042 15.38096477651011
ALOS-2                  
1 39766U 14029A   26035.30826381  .00000607  00000+0  88194-4 0  9990
2 39766  97.9221 134.3859 0001438 102.5712 257.5660 14.79478399631934
YAOGAN-29               
1 41038U 15069A   26035.19289987  .00000424  00000+0  58901-4 0  9992
2 41038  98.0175  63.5275 0002908  92.3414 267.8132 14.82956158550916
ASTRO-H (HITOMI)        
1 41337U 16012A   26034.58832625  .00003662  00000+0  21558-3 0  9992
2 41337  30.9978 216.5694 0009875 349.5717  10.4715 15.09749554547074
HXMT (HUIYAN)           
1 42758U 17034A   26034.93964225  .00006225  00000+0  31720-3 0  9996
2 42758  43.0128 204.2439 0031417  18.9038 341.2969 15.17007385477419
CZ-2C R/B               
1 43521U 18054D   26034.50082417  .00279251  29957-4  77031-3 0  9998
2 43521  35.1291 179.0721 0013619 331.2393  28.7594 15.92667316423414
SAOCOM 1A               
1 43641U 18076A   26035.14022494  .00000725  00000+0  97661-4 0  9998
2 43641  97.8858 223.7889 0001368  86.7233 273.4137 14.82151780396395
H-2A R/B                
1 43682U 18084L   26035.15316982  .00021559  00000+0  53837-3 0  9995
2 43682  98.8756 245.4111 0026305 138.3262 221.9990 15.39849549400617
SAOCOM 1B               
1 46265U 20059A   26035.17148279  .00000251  00000+0  38096-4 0  9991
2 46265  97.8857 222.9181 0001359  82.0959 278.0408 14.82157860293785
CSS (TIANHE)            
1 48274U 21035A   26035.16760326  .00016071  00000+0  20308-3 0  9993
2 48274  41.4675  51.9003 0006041 355.4467   4.6316 15.59165703272370
COSMOS 2550             
1 48865U 21056A   26026.13240542 -.00000181  00000+0  32270-6 0  9992
2 48865  67.1441 169.6578 0008309 269.8947  90.1255 15.33840202256938
CZ-2C R/B               
1 52794U 22058K   26034.60326554  .00029913  00000+0  47820-3 0  9997
2 52794  50.1897 133.3094 0042475  56.2790 304.2217 15.51827388204837
